<?xml version="1.0" encoding="UTF-8"?>
<ndm xmlns:xsi="http://www.w3.org/2001/XMLSchema-instance" xsi:noNamespaceSchemaLocation="https://sanaregistry.org/r/ndmxml_unqualified/ndmxml-2.0.0-master-2.0.xsd">
<omm id="CCSDS_OMM_VERS" version="2.0">
<header><CREATION_DATE/><ORIGINATOR/></header><body><segment><metadata><OBJECT_NAME>ORBCOMM FM37</OBJECT_NAME><OBJECT_ID>2008-031E</OBJECT_ID><CENTER_NAME>EARTH</CENTER_NAME><REF_FRAME>TEME</REF_FRAME><TIME_SYSTEM>UTC</TIME_SYSTEM><MEAN_ELEMENT_THEORY>SGP4</MEAN_ELEMENT_THEORY></metadata><data><meanElements><EPOCH>2025-09-28T23:32:58.881120</EPOCH><MEAN_MOTION>14.80138176</MEAN_MOTION><ECCENTRICITY>.00047988</ECCENTRICITY><INCLINATION>48.4381</INCLINATION><RA_OF_ASC_NODE>210.0716</RA_OF_ASC_NODE><ARG_OF_PERICENTER>100.6641</ARG_OF_PERICENTER><MEAN_ANOMALY>300.2737</MEAN_ANOMALY></meanElements><tleParameters><EPHEMERIS_TYPE>0</EPHEMERIS_TYPE><CLASSIFICATION_TYPE>U</CLASSIFICATION_TYPE><NORAD_CAT_ID>33064</NORAD_CAT_ID><ELEMENT_SET_NO>999</ELEMENT_SET_NO><REV_AT_EPOCH>92942</REV_AT_EPOCH><BSTAR>.5037114E-3</BSTAR><MEAN_MOTION_DOT>.3654E-4</MEAN_MOTION_DOT><MEAN_MOTION_DDOT>0</MEAN_MOTION_DDOT></tleParameters></data></segment></body></omm>
<omm id="CCSDS_OMM_VERS" version="2.0">
<header><CREATION_DATE/><ORIGINATOR/></header><body><segment><metadata><OBJECT_NAME>ORBCOMM FM40</OBJECT_NAME><OBJECT_ID>2008-031F</OBJECT_ID><CENTER_NAME>EARTH</CENTER_NAME><REF_FRAME>TEME</REF_FRAME><TIME_SYSTEM>UTC</TIME_SYSTEM><MEAN_ELEMENT_THEORY>SGP4</MEAN_ELEMENT_THEORY></metadata><data><meanElements><EPOCH>2025-09-29T02:02:28.243968</EPOCH><MEAN_MOTION>14.82505199</MEAN_MOTION><ECCENTRICITY>.00060074</ECCENTRICITY><INCLINATION>48.4399</INCLINATION><RA_OF_ASC_NODE>191.8410</RA_OF_ASC_NODE><ARG_OF_PERICENTER>117.2035</ARG_OF_PERICENTER><MEAN_ANOMALY>8.6144</MEAN_ANOMALY></meanElements><tleParameters><EPHEMERIS_TYPE>0</EPHEMERIS_TYPE><CLASSIFICATION_TYPE>U</CLASSIFICATION_TYPE><NORAD_CAT_ID>33065</NORAD_CAT_ID><ELEMENT_SET_NO>999</ELEMENT_SET_NO><REV_AT_EPOCH>92957</REV_AT_EPOCH><BSTAR>.67612863E-3</BSTAR><MEAN_MOTION_DOT>.5278E-4</MEAN_MOTION_DOT><MEAN_MOTION_DDOT>0</MEAN_MOTION_DDOT></tleParameters></data></segment></body></omm>
<omm id="CCSDS_OMM_VERS" version="2.0">
<header><CREATION_DATE/><ORIGINATOR/></header><body><segment><metadata><OBJECT_NAME>VESSELSAT 1</OBJECT_NAME><OBJECT_ID>2011-058C</OBJECT_ID><CENTER_NAME>EARTH</CENTER_NAME><REF_FRAME>TEME</REF_FRAME><TIME_SYSTEM>UTC</TIME_SYSTEM><MEAN_ELEMENT_THEORY>SGP4</MEAN_ELEMENT_THEORY></metadata><data><meanElements><EPOCH>2025-09-29T19:21:59.323968</EPOCH><MEAN_MOTION>14.11374419</MEAN_MOTION><ECCENTRICITY>.001351</ECCENTRICITY><INCLINATION>19.9611</INCLINATION><RA_OF_ASC_NODE>180.8239</RA_OF_ASC_NODE><ARG_OF_PERICENTER>257.1110</ARG_OF_PERICENTER><MEAN_ANOMALY>102.7785</MEAN_ANOMALY></meanElements><tleParameters><EPHEMERIS_TYPE>0</EPHEMERIS_TYPE><CLASSIFICATION_TYPE>U</CLASSIFICATION_TYPE><NORAD_CAT_ID>37840</NORAD_CAT_ID><ELEMENT_SET_NO>999</ELEMENT_SET_NO><REV_AT_EPOCH>72110</REV_AT_EPOCH><BSTAR>.11581E-3</BSTAR><MEAN_MOTION_DOT>.478E-5</MEAN_MOTION_DOT><MEAN_MOTION_DDOT>0</MEAN_MOTION_DDOT></tleParameters></data></segment></body></omm>
<omm id="CCSDS_OMM_VERS" version="2.0">
<header><CREATION_DATE/><ORIGINATOR/></header><body><segment><metadata><OBJECT_NAME>ORBCOMM FM109</OBJECT_NAME><OBJECT_ID>2014-040A</OBJECT_ID><CENTER_NAME>EARTH</CENTER_NAME><REF_FRAME>TEME</REF_FRAME><TIME_SYSTEM>UTC</TIME_SYSTEM><MEAN_ELEMENT_THEORY>SGP4</MEAN_ELEMENT_THEORY></metadata><data><meanElements><EPOCH>2025-09-29T06:15:35.070048</EPOCH><MEAN_MOTION>14.58333284</MEAN_MOTION><ECCENTRICITY>.0000656</ECCENTRICITY><INCLINATION>47.0027</INCLINATION><RA_OF_ASC_NODE>244.7188</RA_OF_ASC_NODE><ARG_OF_PERICENTER>87.7446</ARG_OF_PERICENTER><MEAN_ANOMALY>272.3515</MEAN_ANOMALY></meanElements><tleParameters><EPHEMERIS_TYPE>0</EPHEMERIS_TYPE><CLASSIFICATION_TYPE>U</CLASSIFICATION_TYPE><NORAD_CAT_ID>40086</NORAD_CAT_ID><ELEMENT_SET_NO>999</ELEMENT_SET_NO><REV_AT_EPOCH>59625</REV_AT_EPOCH><BSTAR>.36755421E-3</BSTAR><MEAN_MOTION_DOT>.1548E-4</MEAN_MOTION_DOT><MEAN_MOTION_DDOT>0</MEAN_MOTION_DDOT></tleParameters></data></segment></body></omm>
<omm id="CCSDS_OMM_VERS" version="2.0">
<header><CREATION_DATE/><ORIGINATOR/></header><body><segment><metadata><OBJECT_NAME>ORBCOMM FM107</OBJECT_NAME><OBJECT_ID>2014-040B</OBJECT_ID><CENTER_NAME>EARTH</CENTER_NAME><REF_FRAME>TEME</REF_FRAME><TIME_SYSTEM>UTC</TIME_SYSTEM><MEAN_ELEMENT_THEORY>SGP4</MEAN_ELEMENT_THEORY></metadata><data><meanElements><EPOCH>2025-09-29T19:58:13.923840</EPOCH><MEAN_MOTION>14.58417752</MEAN_MOTION><ECCENTRICITY>.0001199</ECCENTRICITY><INCLINATION>47.0043</INCLINATION><RA_OF_ASC_NODE>242.9410</RA_OF_ASC_NODE><ARG_OF_PERICENTER>350.3600</ARG_OF_PERICENTER><MEAN_ANOMALY>9.7262</MEAN_ANOMALY></meanElements><tleParameters><EPHEMERIS_TYPE>0</EPHEMERIS_TYPE><CLASSIFICATION_TYPE>U</CLASSIFICATION_TYPE><NORAD_CAT_ID>40087</NORAD_CAT_ID><ELEMENT_SET_NO>999</ELEMENT_SET_NO><REV_AT_EPOCH>59641</REV_AT_EPOCH><BSTAR>.36236E-3</BSTAR><MEAN_MOTION_DOT>.1526E-4</MEAN_MOTION_DOT><MEAN_MOTION_DDOT>0</MEAN_MOTION_DDOT></tleParameters></data></segment></body></omm>
<omm id="CCSDS_OMM_VERS" version="2.0">
<header><CREATION_DATE/><ORIGINATOR/></header><body><segment><metadata><OBJECT_NAME>ORBCOMM FM106</OBJECT_NAME><OBJECT_ID>2014-040C</OBJECT_ID><CENTER_NAME>EARTH</CENTER_NAME><REF_FRAME>TEME</REF_FRAME><TIME_SYSTEM>UTC</TIME_SYSTEM><MEAN_ELEMENT_THEORY>SGP4</MEAN_ELEMENT_THEORY></metadata><data><meanElements><EPOCH>2025-09-29T17:30:56.162880</EPOCH><MEAN_MOTION>14.69707590</MEAN_MOTION><ECCENTRICITY>.0017213</ECCENTRICITY><INCLINATION>47.0598</INCLINATION><RA_OF_ASC_NODE>57.1284</RA_OF_ASC_NODE><ARG_OF_PERICENTER>194.7039</ARG_OF_PERICENTER><MEAN_ANOMALY>165.3354</MEAN_ANOMALY></meanElements><tleParameters><EPHEMERIS_TYPE>0</EPHEMERIS_TYPE><CLASSIFICATION_TYPE>U</CLASSIFICATION_TYPE><NORAD_CAT_ID>40088</NORAD_CAT_ID><ELEMENT_SET_NO>999</ELEMENT_SET_NO><REV_AT_EPOCH>59885</REV_AT_EPOCH><BSTAR>.58101E-3</BSTAR><MEAN_MOTION_DOT>.3317E-4</MEAN_MOTION_DOT><MEAN_MOTION_DDOT>0</MEAN_MOTION_DDOT></tleParameters></data></segment></body></omm>
<omm id="CCSDS_OMM_VERS" version="2.0">
<header><CREATION_DATE/><ORIGINATOR/></header><body><segment><metadata><OBJECT_NAME>ORBCOMM FM111</OBJECT_NAME><OBJECT_ID>2014-040D</OBJECT_ID><CENTER_NAME>EARTH</CENTER_NAME><REF_FRAME>TEME</REF_FRAME><TIME_SYSTEM>UTC</TIME_SYSTEM><MEAN_ELEMENT_THEORY>SGP4</MEAN_ELEMENT_THEORY></metadata><data><meanElements><EPOCH>2025-09-28T09:14:34.703232</EPOCH><MEAN_MOTION>14.86915869</MEAN_MOTION><ECCENTRICITY>.00305069</ECCENTRICITY><INCLINATION>47.0003</INCLINATION><RA_OF_ASC_NODE>259.7170</RA_OF_ASC_NODE><ARG_OF_PERICENTER>326.0507</ARG_OF_PERICENTER><MEAN_ANOMALY>33.8437</MEAN_ANOMALY></meanElements><tleParameters><EPHEMERIS_TYPE>0</EPHEMERIS_TYPE><CLASSIFICATION_TYPE>U</CLASSIFICATION_TYPE><NORAD_CAT_ID>40089</NORAD_CAT_ID><ELEMENT_SET_NO>999</ELEMENT_SET_NO><REV_AT_EPOCH>60558</REV_AT_EPOCH><BSTAR>.67486648E-3</BSTAR><MEAN_MOTION_DOT>.5938E-4</MEAN_MOTION_DOT><MEAN_MOTION_DDOT>0</MEAN_MOTION_DDOT></tleParameters></data></segment></body></omm>
<omm id="CCSDS_OMM_VERS" version="2.0">
<header><CREATION_DATE/><ORIGINATOR/></header><body><segment><metadata><OBJECT_NAME>ORBCOMM FM104</OBJECT_NAME><OBJECT_ID>2014-040E</OBJECT_ID><CENTER_NAME>EARTH</CENTER_NAME><REF_FRAME>TEME</REF_FRAME><TIME_SYSTEM>UTC</TIME_SYSTEM><MEAN_ELEMENT_THEORY>SGP4</MEAN_ELEMENT_THEORY></metadata><data><meanElements><EPOCH>2025-09-28T10:14:59.696448</EPOCH><MEAN_MOTION>14.56800421</MEAN_MOTION><ECCENTRICITY>.00171479</ECCENTRICITY><INCLINATION>47.0049</INCLINATION><RA_OF_ASC_NODE>284.4368</RA_OF_ASC_NODE><ARG_OF_PERICENTER>314.3888</ARG_OF_PERICENTER><MEAN_ANOMALY>45.5592</MEAN_ANOMALY></meanElements><tleParameters><EPHEMERIS_TYPE>0</EPHEMERIS_TYPE><CLASSIFICATION_TYPE>U</CLASSIFICATION_TYPE><NORAD_CAT_ID>40090</NORAD_CAT_ID><ELEMENT_SET_NO>999</ELEMENT_SET_NO><REV_AT_EPOCH>59567</REV_AT_EPOCH><BSTAR>.33035116E-3</BSTAR><MEAN_MOTION_DOT>.1325E-4</MEAN_MOTION_DOT><MEAN_MOTION_DDOT>0</MEAN_MOTION_DDOT></tleParameters></data></segment></body></omm>

</ndm>
