ORBCOMM FM37            
1 33064U 08031E   25271.98123705  .00003654  00000+0  50371-3 0  9996
2 33064  48.4381 210.0716 0004798 100.6641 300.2737 14.80138176929426
ORBCOMM FM40            
1 33065U 08031F   25272.08504912  .00005278  00000+0  67613-3 0  9993
2 33065  48.4399 191.8410 0006007 117.2035   8.6144 14.82505199929571
VESSELSAT 1             
1 37840U 11058C   25272.80693662  .00000478  00000+0  11581-3 0  9992
2 37840  19.9611 180.8239 0013510 257.1110 102.7785 14.11374419721105
ORBCOMM FM109           
1 40086U 14040A   25272.26082257  .00001548  00000+0  36755-3 0  9993
2 40086  47.0027 244.7188 0000656  87.7446 272.3515 14.58333284596250
ORBCOMM FM107           
1 40087U 14040B   25272.83210560  .00001526  00000+0  36236-3 0  9997
2 40087  47.0043 242.9410 0001199 350.3600   9.7262 14.58417752596413
ORBCOMM FM106           
1 40088U 14040C   25272.72981670  .00003317  00000+0  58101-3 0  9998
2 40088  47.0598  57.1284 0017213 194.7039 165.3354 14.69707590598859
ORBCOMM FM111           
1 40089U 14040D   25271.38512388  .00005938  00000+0  67487-3 0  9994
2 40089  47.0003 259.7170 0030506 326.0507  33.8437 14.86915869605584
ORBCOMM FM104           
1 40090U 14040E   25271.42707982  .00001325  00000+0  33035-3 0  9995
2 40090  47.0049 284.4368 0017147 314.3888  45.5592 14.56800421595672
